{"fetched_at":"2026-07-17T17:37:51.795Z","source":"https://celestrak.org/NORAD/elements/gp.php?GROUP=kuiper&FORMAT=JSON","constellation":"kuiper","records":[{"OBJECT_NAME":"KUIPER-00060","OBJECT_ID":"2025-134W","EPOCH":"2026-07-16T22:18:42.201504","CLASSIFICATION_TYPE":"U","MEAN_MOTION":14.79939501,"ECCENTRICITY":0.00006821,"INCLINATION":51.9044,"RA_OF_ASC_NODE":9.1498,"ARG_OF_PERICENTER":117.0429,"MEAN_ANOMALY":243.0603,"EPHEMERIS_TYPE":0,"NORAD_CAT_ID":64520,"ELEMENT_SET_NO":999,"REV_AT_EPOCH":5937,"BSTAR":0.0002434513,"MEAN_MOTION_DOT":0.00001635,"MEAN_MOTION_DDOT":0},{"OBJECT_NAME":"KUIPER-00061","OBJECT_ID":"2025-134X","EPOCH":"2026-07-16T19:41:15.111456","CLASSIFICATION_TYPE":"U","MEAN_MOTION":14.79924978,"ECCENTRICITY":0.00008535,"INCLINATION":51.9019,"RA_OF_ASC_NODE":17.0848,"ARG_OF_PERICENTER":115.278,"MEAN_ANOMALY":244.8271,"EPHEMERIS_TYPE":0,"NORAD_CAT_ID":64521,"ELEMENT_SET_NO":999,"REV_AT_EPOCH":5925,"BSTAR":0.00023798703,"MEAN_MOTION_DOT":0.00001593,"MEAN_MOTION_DDOT":0},{"OBJECT_NAME":"KUIPER-00062","OBJECT_ID":"2025-134Y","EPOCH":"2026-07-17T05:20:44.933856","CLASSIFICATION_TYPE":"U","MEAN_MOTION":14.79928695,"ECCENTRICITY":0.00007369,"INCLINATION":51.8966,"RA_OF_ASC_NODE":17.7799,"ARG_OF_PERICENTER":109.0342,"MEAN_ANOMALY":251.07,"EPHEMERIS_TYPE":0,"NORAD_CAT_ID":64522,"ELEMENT_SET_NO":999,"REV_AT_EPOCH":5929,"BSTAR":0.00007773646,"MEAN_MOTION_DOT":0.00000371,"MEAN_MOTION_DDOT":0},{"OBJECT_NAME":"KUIPER-00063","OBJECT_ID":"2025-134Z","EPOCH":"2026-07-17T05:09:07.494048","CLASSIFICATION_TYPE":"U","MEAN_MOTION":14.79930538,"ECCENTRICITY":0.00007053,"INCLINATION":51.9032,"RA_OF_ASC_NODE":25.3722,"ARG_OF_PERICENTER":111.3297,"MEAN_ANOMALY":248.7741,"EPHEMERIS_TYPE":0,"NORAD_CAT_ID":64523,"ELEMENT_SET_NO":999,"REV_AT_EPOCH":5918,"BSTAR":0.00014521848,"MEAN_MOTION_DOT":0.00000886,"MEAN_MOTION_DDOT":0},{"OBJECT_NAME":"KUIPER-00064","OBJECT_ID":"2025-134AA","EPOCH":"2026-07-16T16:15:02.651328","CLASSIFICATION_TYPE":"U","MEAN_MOTION":14.7993243,"ECCENTRICITY":0.00007083,"INCLINATION":51.9039,"RA_OF_ASC_NODE":25.1714,"ARG_OF_PERICENTER":123.5659,"MEAN_ANOMALY":236.5371,"EPHEMERIS_TYPE":0,"NORAD_CAT_ID":64524,"ELEMENT_SET_NO":999,"REV_AT_EPOCH":5914,"BSTAR":0.000039639564,"MEAN_MOTION_DOT":8.1e-7,"MEAN_MOTION_DDOT":0},{"OBJECT_NAME":"KUIPER-00065","OBJECT_ID":"2025-134AB","EPOCH":"2026-07-17T05:05:14.277984","CLASSIFICATION_TYPE":"U","MEAN_MOTION":14.7993997,"ECCENTRICITY":0.00007718,"INCLINATION":51.9048,"RA_OF_ASC_NODE":27.9784,"ARG_OF_PERICENTER":122.1686,"MEAN_ANOMALY":237.9351,"EPHEMERIS_TYPE":0,"NORAD_CAT_ID":64525,"ELEMENT_SET_NO":999,"REV_AT_EPOCH":5913,"BSTAR":0.00022543245,"MEAN_MOTION_DOT":0.00001498,"MEAN_MOTION_DDOT":0},{"OBJECT_NAME":"KUIPER-00066","OBJECT_ID":"2025-134AC","EPOCH":"2026-07-16T16:55:39.883872","CLASSIFICATION_TYPE":"U","MEAN_MOTION":14.79979187,"ECCENTRICITY":0.00004304,"INCLINATION":51.9023,"RA_OF_ASC_NODE":327.4968,"ARG_OF_PERICENTER":88.603,"MEAN_ANOMALY":271.4981,"EPHEMERIS_TYPE":0,"NORAD_CAT_ID":64526,"ELEMENT_SET_NO":999,"REV_AT_EPOCH":5995,"BSTAR":0.0011559926,"MEAN_MOTION_DOT":0.00008612,"MEAN_MOTION_DDOT":0},{"OBJECT_NAME":"KUIPER-00069","OBJECT_ID":"2025-151A","EPOCH":"2026-07-16T19:56:53.723904","CLASSIFICATION_TYPE":"U","MEAN_MOTION":14.79937085,"ECCENTRICITY":0.00007141,"INCLINATION":51.9028,"RA_OF_ASC_NODE":69.5802,"ARG_OF_PERICENTER":107.2911,"MEAN_ANOMALY":252.8129,"EPHEMERIS_TYPE":0,"NORAD_CAT_ID":64816,"ELEMENT_SET_NO":999,"REV_AT_EPOCH":5588,"BSTAR":0.00024066615,"MEAN_MOTION_DOT":0.00001614,"MEAN_MOTION_DDOT":0},{"OBJECT_NAME":"KUIPER-00070","OBJECT_ID":"2025-151B","EPOCH":"2026-07-17T02:35:38.457600","CLASSIFICATION_TYPE":"U","MEAN_MOTION":14.79936171,"ECCENTRICITY":0.00008634,"INCLINATION":51.9006,"RA_OF_ASC_NODE":93.2673,"ARG_OF_PERICENTER":92.7907,"MEAN_ANOMALY":267.3154,"EPHEMERIS_TYPE":0,"NORAD_CAT_ID":64817,"ELEMENT_SET_NO":999,"REV_AT_EPOCH":5558,"BSTAR":0.00024079386,"MEAN_MOTION_DOT":0.00001615,"MEAN_MOTION_DDOT":0},{"OBJECT_NAME":"KUIPER-00071","OBJECT_ID":"2025-151C","EPOCH":"2026-07-16T23:25:01.877952","CLASSIFICATION_TYPE":"U","MEAN_MOTION":14.79950763,"ECCENTRICITY":0.00012738,"INCLINATION":51.9024,"RA_OF_ASC_NODE":91.3903,"ARG_OF_PERICENTER":104.5736,"MEAN_ANOMALY":255.5368,"EPHEMERIS_TYPE":0,"NORAD_CAT_ID":64818,"ELEMENT_SET_NO":999,"REV_AT_EPOCH":5441,"BSTAR":-0.00033841937,"MEAN_MOTION_DOT":-0.00002801,"MEAN_MOTION_DDOT":0},{"OBJECT_NAME":"KUIPER-00072","OBJECT_ID":"2025-151D","EPOCH":"2026-07-17T00:44:40.521120","CLASSIFICATION_TYPE":"U","MEAN_MOTION":14.8001832,"ECCENTRICITY":0.0000521,"INCLINATION":51.8971,"RA_OF_ASC_NODE":71.0926,"ARG_OF_PERICENTER":160.6265,"MEAN_ANOMALY":199.4717,"EPHEMERIS_TYPE":0,"NORAD_CAT_ID":64819,"ELEMENT_SET_NO":999,"REV_AT_EPOCH":5470,"BSTAR":-0.0025203516,"MEAN_MOTION_DOT":-0.00019418,"MEAN_MOTION_DDOT":0},{"OBJECT_NAME":"KUIPER-00073","OBJECT_ID":"2025-151E","EPOCH":"2026-07-17T01:50:53.152512","CLASSIFICATION_TYPE":"U","MEAN_MOTION":14.79942015,"ECCENTRICITY":0.00010545,"INCLINATION":51.901,"RA_OF_ASC_NODE":90.9275,"ARG_OF_PERICENTER":102.6995,"MEAN_ANOMALY":257.4085,"EPHEMERIS_TYPE":0,"NORAD_CAT_ID":64820,"ELEMENT_SET_NO":999,"REV_AT_EPOCH":5561,"BSTAR":-0.00062431125,"MEAN_MOTION_DOT":-0.00004978,"MEAN_MOTION_DDOT":0},{"OBJECT_NAME":"KUIPER-00074","OBJECT_ID":"2025-151F","EPOCH":"2026-07-17T04:01:19.013088","CLASSIFICATION_TYPE":"U","MEAN_MOTION":16.03249046,"ECCENTRICITY":0.00055299,"INCLINATION":51.8737,"RA_OF_ASC_NODE":347.217,"ARG_OF_PERICENTER":292.8749,"MEAN_ANOMALY":67.1682,"EPHEMERIS_TYPE":0,"NORAD_CAT_ID":64821,"ELEMENT_SET_NO":999,"REV_AT_EPOCH":5586,"BSTAR":0.0006066717,"MEAN_MOTION_DOT":0.00383735,"MEAN_MOTION_DDOT":0.000076787266},{"OBJECT_NAME":"KUIPER-00075","OBJECT_ID":"2025-151G","EPOCH":"2026-07-17T07:54:05.885856","CLASSIFICATION_TYPE":"U","MEAN_MOTION":15.4542553,"ECCENTRICITY":0.00039279,"INCLINATION":51.8657,"RA_OF_ASC_NODE":308.9581,"ARG_OF_PERICENTER":18.3591,"MEAN_ANOMALY":341.754,"EPHEMERIS_TYPE":0,"NORAD_CAT_ID":64822,"ELEMENT_SET_NO":999,"REV_AT_EPOCH":5642,"BSTAR":0.00048742157,"MEAN_MOTION_DOT":0.0002336,"MEAN_MOTION_DDOT":0},{"OBJECT_NAME":"KUIPER-00076","OBJECT_ID":"2025-151H","EPOCH":"2026-07-17T02:06:26.218080","CLASSIFICATION_TYPE":"U","MEAN_MOTION":14.79938041,"ECCENTRICITY":0.00008603,"INCLINATION":51.9017,"RA_OF_ASC_NODE":80.8986,"ARG_OF_PERICENTER":107.8673,"MEAN_ANOMALY":252.2383,"EPHEMERIS_TYPE":0,"NORAD_CAT_ID":64823,"ELEMENT_SET_NO":999,"REV_AT_EPOCH":5457,"BSTAR":0.00023159009,"MEAN_MOTION_DOT":0.00001545,"MEAN_MOTION_DDOT":0},{"OBJECT_NAME":"KUIPER-00077","OBJECT_ID":"2025-151J","EPOCH":"2026-07-17T01:58:40.597248","CLASSIFICATION_TYPE":"U","MEAN_MOTION":14.79938388,"ECCENTRICITY":0.00007786,"INCLINATION":51.9021,"RA_OF_ASC_NODE":85.9406,"ARG_OF_PERICENTER":106.0497,"MEAN_ANOMALY":254.0551,"EPHEMERIS_TYPE":0,"NORAD_CAT_ID":64824,"ELEMENT_SET_NO":999,"REV_AT_EPOCH":5450,"BSTAR":0.00024095822,"MEAN_MOTION_DOT":0.00001616,"MEAN_MOTION_DDOT":0},{"OBJECT_NAME":"KUIPER-00078","OBJECT_ID":"2025-151K","EPOCH":"2026-07-17T02:51:10.502784","CLASSIFICATION_TYPE":"U","MEAN_MOTION":14.7993681,"ECCENTRICITY":0.00007618,"INCLINATION":51.9012,"RA_OF_ASC_NODE":83.2578,"ARG_OF_PERICENTER":102.7737,"MEAN_ANOMALY":257.3311,"EPHEMERIS_TYPE":0,"NORAD_CAT_ID":64825,"ELEMENT_SET_NO":999,"REV_AT_EPOCH":5454,"BSTAR":0.00025283987,"MEAN_MOTION_DOT":0.00001707,"MEAN_MOTION_DDOT":0},{"OBJECT_NAME":"KUIPER-00079","OBJECT_ID":"2025-151L","EPOCH":"2026-07-17T01:54:47.118528","CLASSIFICATION_TYPE":"U","MEAN_MOTION":14.79927439,"ECCENTRICITY":0.00009241,"INCLINATION":51.9001,"RA_OF_ASC_NODE":88.3908,"ARG_OF_PERICENTER":96.8097,"MEAN_ANOMALY":263.297,"EPHEMERIS_TYPE":0,"NORAD_CAT_ID":64826,"ELEMENT_SET_NO":999,"REV_AT_EPOCH":5566,"BSTAR":0.000011394778,"MEAN_MOTION_DOT":-0.00000134,"MEAN_MOTION_DDOT":0},{"OBJECT_NAME":"KUIPER-00080","OBJECT_ID":"2025-151M","EPOCH":"2026-07-17T02:43:30.553248","CLASSIFICATION_TYPE":"U","MEAN_MOTION":14.79899433,"ECCENTRICITY":0.000061,"INCLINATION":51.9005,"RA_OF_ASC_NODE":88.2531,"ARG_OF_PERICENTER":103.4353,"MEAN_ANOMALY":256.6677,"EPHEMERIS_TYPE":0,"NORAD_CAT_ID":64827,"ELEMENT_SET_NO":999,"REV_AT_EPOCH":5447,"BSTAR":0.00024728471,"MEAN_MOTION_DOT":0.00001663,"MEAN_MOTION_DDOT":0},{"OBJECT_NAME":"KUIPER-00082","OBJECT_ID":"2025-151N","EPOCH":"2026-07-16T22:59:43.069632","CLASSIFICATION_TYPE":"U","MEAN_MOTION":14.79939812,"ECCENTRICITY":0.00008199,"INCLINATION":51.9021,"RA_OF_ASC_NODE":76.4923,"ARG_OF_PERICENTER":109.1633,"MEAN_ANOMALY":250.9418,"EPHEMERIS_TYPE":0,"NORAD_CAT_ID":64828,"ELEMENT_SET_NO":999,"REV_AT_EPOCH":5462,"BSTAR":0.00022805357,"MEAN_MOTION_DOT":0.00001518,"MEAN_MOTION_DDOT":0},{"OBJECT_NAME":"KUIPER-00083","OBJECT_ID":"2025-151P","EPOCH":"2026-07-17T02:02:33.198144","CLASSIFICATION_TYPE":"U","MEAN_MOTION":14.79938547,"ECCENTRICITY":0.00007873,"INCLINATION":51.9015,"RA_OF_ASC_NODE":83.4142,"ARG_OF_PERICENTER":107.1617,"MEAN_ANOMALY":252.9431,"EPHEMERIS_TYPE":0,"NORAD_CAT_ID":64829,"ELEMENT_SET_NO":999,"REV_AT_EPOCH":5572,"BSTAR":0.00025342338,"MEAN_MOTION_DOT":0.00001711,"MEAN_MOTION_DDOT":0},{"OBJECT_NAME":"KUIPER-00084","OBJECT_ID":"2025-151Q","EPOCH":"2026-07-17T03:24:12.455712","CLASSIFICATION_TYPE":"U","MEAN_MOTION":14.79923537,"ECCENTRICITY":0.00008653,"INCLINATION":51.902,"RA_OF_ASC_NODE":93.1488,"ARG_OF_PERICENTER":102.9119,"MEAN_ANOMALY":257.194,"EPHEMERIS_TYPE":0,"NORAD_CAT_ID":64830,"ELEMENT_SET_NO":999,"REV_AT_EPOCH":5440,"BSTAR":-0.0002559021,"MEAN_MOTION_DOT":-0.00002171,"MEAN_MOTION_DDOT":0},{"OBJECT_NAME":"KUIPER-00085","OBJECT_ID":"2025-151R","EPOCH":"2026-07-17T01:25:35.589216","CLASSIFICATION_TYPE":"U","MEAN_MOTION":14.79937903,"ECCENTRICITY":0.00007843,"INCLINATION":51.9039,"RA_OF_ASC_NODE":76.0919,"ARG_OF_PERICENTER":107.2812,"MEAN_ANOMALY":252.8236,"EPHEMERIS_TYPE":0,"NORAD_CAT_ID":64831,"ELEMENT_SET_NO":999,"REV_AT_EPOCH":5463,"BSTAR":0.0002452407,"MEAN_MOTION_DOT":0.00001649,"MEAN_MOTION_DDOT":0}]}
